NORAD_CAT_ID,OBJECT_NAME,OBJECT_TYPE,EPOCH,MEAN_MOTION,ECCENTRICITY,INCLINATION,RA_OF_ASC_NODE,ARG_OF_PERICENTER,MEAN_ANOMALY,BSTAR,MEAN_MOTION_DOT,MEAN_MOTION_DDOT,TLE_LINE0,TLE_LINE1,TLE_LINE2,SEMIMAJOR_AXIS,PERIOD,APOGEE,PERIGEE,DECAYED
54764.0,STARLINK-5458,PAYLOAD,2023-01-16 20:00:01,15.48726884,0.0001264,53.2147,159.2926,79.5017,138.7059,-0.023449,-0.01167125,0.0,0 STARLINK-5458,1 54764U 22175G   23016.83334491 -.01167125  00000-0 -23449-1 0  9998,2 54764  53.2147 159.2926 0001264  79.5017 138.7059 15.48726884  4433,6798.585999999999,92.98,421.311,419.592,0.0
54764.0,STARLINK-5458,PAYLOAD,2023-01-17 14:00:01,15.46815465,0.0001202,53.2171,155.7142,84.2572,355.2495,-0.025939,-0.01203784,0.0,0 STARLINK-5458,1 54764U 22175G   23017.58334491 -.01203784  00000-0 -25939-1 0  9999,2 54764  53.2171 155.7142 0001202  84.2572 355.2495 15.46815465  1307,6804.186,93.094,426.869,425.233,0.0
54764.0,STARLINK-5458,PAYLOAD,2023-01-17 16:00:00,15.4658326,0.0001415,53.2147,155.3225,86.631,97.1889,-0.025561,-0.01179098,0.0,0 STARLINK-5458,1 54764U 22175G   23017.66667824 -.01179098  00000-0 -25561-1 0  9998,2 54764  53.2147 155.3225 0001415  86.6310  97.1889 15.46583260  4565,6804.866999999999,93.108,427.695,425.769,0.0
54764.0,STARLINK-5458,PAYLOAD,2023-01-17 22:00:00,15.45980389,0.0001288,53.2144,154.1342,78.7294,57.5016,-0.027547,-0.0123842,0.0,0 STARLINK-5458,1 54764U 22175G   23017.91667824 -.01238420  00000-0 -27547-1 0  9997,2 54764  53.2144 154.1342 0001288  78.7294  57.5016 15.45980389  1303,6806.636,93.145,429.378,427.624,0.0
54764.0,STARLINK-5458,PAYLOAD,2023-01-18 12:00:00,15.44468931,0.0001311,53.2145,151.3652,87.0856,55.8946,-0.028693,-0.01225753,0.0,0 STARLINK-5458,1 54764U 22175G   23018.50001157 -.01225753  00000-0 -28693-1 0  9992,2 54764  53.2145 151.3652 0001311  87.0856  55.8946 15.44468931  4692,6811.076,93.236,433.834,432.048,0.0
54764.0,STARLINK-5458,PAYLOAD,2023-01-18 14:00:01,15.44232863,0.0001324,53.2143,150.9708,89.7843,156.7667,-0.028102,-0.01193924,0.0,0 STARLINK-5458,1 54764U 22175G   23018.58334491 -.01193924  00000-0 -28102-1 0  9999,2 54764  53.2143 150.9708 0001324  89.7843 156.7667 15.44232863  1305,6811.77,93.25,434.537,432.733,0.0
54764.0,STARLINK-5458,PAYLOAD,2023-01-18 22:00:00,15.43410278,0.0001139,53.2139,149.3924,84.9292,215.2156,-0.030188,-0.01242125,0.0,0 STARLINK-5458,1 54764U 22175G   23018.91667824 -.01242125  00000-0 -30188-1 0  9990,2 54764  53.2139 149.3924 0001139  84.9292 215.2156 15.43410278  1302,6814.19,93.3,436.831,435.279,0.0
54764.0,STARLINK-5458,PAYLOAD,2023-01-19 14:00:01,15.41665251,0.0001199999999999,53.2143,146.2414,79.5576,324.7249,-0.0307889999999999,-0.01198543,0.0,0 STARLINK-5458,1 54764U 22175G   23019.58334491 -.01198543  00000-0 -30789-1 0  9996,2 54764  53.2143 146.2414 0001200  79.5576 324.7249 15.41665251  4865,6819.331,93.405,442.015,440.378,0.0
54764.0,STARLINK-5458,PAYLOAD,2023-01-20 14:00:01,15.39088892,0.0001453,53.2148,141.5303,80.9945,111.7536,-0.033282,-0.01189947,0.0,0 STARLINK-5458,1 54764U 22175G   23020.58334491 -.01189947  00000-0 -33282-1 0  9997,2 54764  53.2148 141.5303 0001453  80.9945 111.7536 15.39088892  5019,6826.939,93.562,449.796,447.812,0.0
54764.0,STARLINK-5458,PAYLOAD,2023-01-20 16:00:00,15.38868891,0.0001242,53.2151,141.139,81.656,213.0444,-0.033044,-0.01174336,0.0,0 STARLINK-5458,1 54764U 22175G   23020.66667824 -.01174336  00000-0 -33044-1 0  9997,2 54764  53.2151 141.1390 0001242  81.6560 213.0444 15.38868891  1308,6827.59,93.575,450.30300000000005,448.607,0.0
54764.0,STARLINK-5458,PAYLOAD,2023-01-21 08:00:01,15.37181189,0.0001227,53.2157,138.0076,95.7274,292.3372,-0.036038,-0.01208387,0.0,0 STARLINK-5458,1 54764U 22175G   23021.33335648 -.01208387  00000-0 -36038-1 0  9998,2 54764  53.2157 138.0076 0001227  95.7274 292.3372 15.37181189  5133,6832.585999999999,93.678,455.29,453.61300000000006,0.0
54764.0,STARLINK-5458,PAYLOAD,2023-01-22 08:00:01,15.346116699999998,0.0001472,53.2166,133.3289,89.7974,70.4439,-0.039279,-0.0121177,0.0,0 STARLINK-5458,1 54764U 22175G   23022.33334491 -.01211770  00000-0 -39279-1 0  9994,2 54764  53.2166 133.3289 0001472  89.7974  70.4439 15.34611670  5284,6840.210999999999,93.835,463.083,461.069,0.0
54764.0,STARLINK-5458,PAYLOAD,2023-01-23 08:00:01,15.32038943,0.0001333,53.2166,128.6682,91.4802,191.7321,-0.04255,-0.01226634,0.0,0 STARLINK-5458,1 54764U 22175G   23023.33334491 -.01226634  00000-0 -42550-1 0  9996,2 54764  53.2166 128.6682 0001333  91.4802 191.7321 15.32038943  5443,6847.866999999999,93.992,470.645,468.819,0.0
54764.0,STARLINK-5458,PAYLOAD,2023-01-24 08:00:01,15.29469386,0.0001236,53.2163,124.0257,92.6061,304.3064,-0.046265,-0.01230428,0.0,0 STARLINK-5458,1 54764U 22175G   23024.33334491 -.01230428  00000-0 -46265-1 0  9990,2 54764  53.2163 124.0257 0001236  92.6061 304.3064 15.29469386  5597,6855.534000000001,94.15,478.247,476.552,0.0
54764.0,STARLINK-5458,PAYLOAD,2023-01-25 14:00:01,15.26231074,0.0001294,53.2154,118.2491,75.1858,0.8244,-0.049548,-0.01195953,0.0,0 STARLINK-5458,1 54764U 22175G   23025.58334491 -.01195953  00000-0 -49548-1 0  9998,2 54764  53.2154 118.2491 0001294  75.1858   0.8244 15.26231074  1307,6865.228,94.35,487.982,486.205,0.0
54764.0,STARLINK-5458,PAYLOAD,2023-01-25 16:00:01,15.26003987,0.0001449,53.2155,117.8651,77.5673,96.6013,-0.04874,-0.01170513,0.0,0 STARLINK-5458,1 54764U 22175G   23025.66668981 -.01170513  00000-0 -48740-1 0  9999,2 54764  53.2155 117.8651 0001449  77.5673  96.6013 15.26003987  5798,6865.909000000001,94.364,488.769,486.779,0.0
54764.0,STARLINK-5458,PAYLOAD,2023-01-25 22:00:00,15.253952599999998,0.000129,53.215,116.712,77.9906,29.9934,-0.052647,-0.01235462,0.0,0 STARLINK-5458,1 54764U 22175G   23025.91667824 -.01235462  00000-0 -52647-1 0  9998,2 54764  53.2150 116.7120 0001290  77.9906  29.9934 15.25395260  1300,6867.736,94.402,490.487,488.715,0.0
54764.0,STARLINK-5458,PAYLOAD,2023-01-26 10:00:00,15.24103737,0.0001252,53.2149,114.4119,87.0107,247.0102,-0.054312,-0.01226642,0.0,0 STARLINK-5458,1 54764U 22175G   23026.41667824 -.01226642  00000-0 -54312-1 0  9995,2 54764  53.2149 114.4119 0001252  87.0107 247.0102 15.24103737  5910,6871.615,94.482,494.34,492.62,0.0
54764.0,STARLINK-5458,PAYLOAD,2023-01-26 14:00:01,15.23653897,0.0001486999999999,53.2148,113.6469,76.7561,92.099,-0.053027,-0.01185146,0.0,0 STARLINK-5458,1 54764U 22175G   23026.58334491 -.01185146  00000-0 -53027-1 0  9999,2 54764  53.2148 113.6469 0001487  76.7561  92.0990 15.23653897  1305,6872.967,94.51,495.855,493.81,0.0
54764.0,STARLINK-5458,PAYLOAD,2023-01-27 14:00:01,15.21079512,0.0001464,53.2142,109.063,82.7645,169.6639,-0.056883,-0.01178291,0.0,0 STARLINK-5458,1 54764U 22175G   23027.58334491 -.01178291  00000-0 -56883-1 0  9996,2 54764  53.2142 109.0630 0001464  82.7645 169.6639 15.21079512  1308,6880.72,94.67,503.593,501.578,0.0
54764.0,STARLINK-5458,PAYLOAD,2023-01-27 16:00:00,15.20863252,0.000127,53.2141,108.6819,79.7638,269.2108,-0.056941,-0.01172451,0.0,0 STARLINK-5458,1 54764U 22175G   23027.66667824 -.01172451  00000-0 -56941-1 0  9991,2 54764  53.2141 108.6819 0001270  79.7638 269.2108 15.20863252  6106,6881.371999999999,94.683,504.111,502.364,0.0
54764.0,STARLINK-5458,PAYLOAD,2023-01-27 22:00:00,15.20243708,0.0001324,53.214,107.5378,93.3201,184.9036,-0.0606909999999999,-0.01222685,0.0,0 STARLINK-5458,1 54764U 22175G   23027.91667824 -.01222685  00000-0 -60691-1 0  9991,2 54764  53.2140 107.5378 0001324  93.3201 184.9036 15.20243708  1309,6883.241999999999,94.722,506.018,504.196,0.0
54764.0,STARLINK-5458,PAYLOAD,2023-01-28 08:00:01,15.19180731,0.0001279,53.2141,105.6359,97.3422,301.6752,-0.063141,-0.01232222,0.0,0 STARLINK-5458,1 54764U 22175G   23028.33334491 -.01232222  00000-0 -63141-1 0  9990,2 54764  53.2141 105.6359 0001279  97.3422 301.6752 15.19180731  6207,6886.451999999999,94.788,509.198,507.437,0.0
54764.0,STARLINK-5458,PAYLOAD,2023-01-28 14:00:01,15.18504492,0.0001311,53.214,104.4972,94.17,232.5623,-0.060952,-0.01171463,0.0,0 STARLINK-5458,1 54764U 22175G   23028.58334491 -.01171463  00000-0 -60952-1 0  9993,2 54764  53.2140 104.4972 0001311  94.1700 232.5623 15.18504492  1303,6888.497,94.83,511.265,509.459,0.0
54764.0,STARLINK-5458,PAYLOAD,2023-01-28 22:00:00,15.17665233,0.0001207,53.2137,102.9779,98.511,250.9278,-0.064729,-0.01210685,0.0,0 STARLINK-5458,1 54764U 22175G   23028.91667824 -.01210685  00000-0 -64729-1 0  9995,2 54764  53.2137 102.9779 0001207  98.5110 250.9278 15.17665233  1304,6891.036,94.883,513.733,512.069,0.0
54764.0,STARLINK-5458,PAYLOAD,2023-01-29 16:00:00,15.15728633,0.0001396,53.2136,99.5712,83.5663,43.196,-0.066845,-0.01184795,0.0,0 STARLINK-5458,1 54764U 22175G   23029.66667824 -.01184795  00000-0 -66845-1 0  9991,2 54764  53.2136  99.5712 0001396  83.5663  43.1960 15.15728633  6405,6896.904,95.004,519.732,517.807,0.0
54764.0,STARLINK-5458,PAYLOAD,2023-01-29 22:00:01,15.15087264,0.0001251,53.2138,98.4359,92.2964,319.1507,-0.069,-0.0119948,0.0,0 STARLINK-5458,1 54764U 22175G   23029.91668981 -.01199480  00000-0 -69000-1 0  9997,2 54764  53.2138  98.4359 0001251  92.2964 319.1507 15.15087264  1308,6898.851,95.044,521.579,519.853,0.0
54764.0,STARLINK-5458,PAYLOAD,2023-01-30 10:00:00,15.13808557,0.0001468,53.2137,96.1728,87.1825,171.6919,-0.072254,-0.01210329,0.0,0 STARLINK-5458,1 54764U 22175G   23030.41667824 -.01210329  00000-0 -72254-1 0  9990,2 54764  53.2137  96.1728 0001468  87.1825 171.6919 15.13808557  6522,6902.735,95.124,525.613,523.587,0.0
54764.0,STARLINK-5458,PAYLOAD,2023-01-30 14:00:01,15.13360311,0.0001431,53.214,95.4196,73.6718,13.8559,-0.07033,-0.01166957,0.0,0 STARLINK-5458,1 54764U 22175G   23030.58334491 -.01166957  00000-0 -70330-1 0  9999,2 54764  53.2140  95.4196 0001431  73.6718  13.8559 15.13360311  1307,6904.098,95.152,526.951,524.975,0.0
